GLOBALSTAR M094         
1 39074U 13005C   25093.90206952 -.00000099  00000+0  27215-4 0  9993
2 39074  51.9969  48.2889 0000751  85.1325 274.9627 12.62269407562997
GLOBALSTAR M096         
1 39075U 13005D   25093.67778152 -.00000113  00000+0 -52777-4 0  9993
2 39075  52.0056  97.4303 0000593  85.0839 275.0095 12.62269972561882
GLOBALSTAR M078         
1 39076U 13005E   25093.65088779 -.00000076  00000+0  15238-3 0  9998
2 39076  51.9868 182.1224 0000981  46.6173 313.4775 12.62259544560505
GLOBALSTAR M095         
1 39077U 13005F   25093.59840267 -.00000071  00000+0  18245-3 0  9996
2 39077  51.9793 179.5179 0000891  84.3398 275.7570 12.62268543560355
GLOBALSTAR M087         
1 52888U 22064A   25093.86660172 -.00000068  00000+0  19920-3 0  9998
2 52888  51.9807 320.1062 0000907  82.7568 277.3402 12.62270358135650
